NUSAT-50 (NANCY ROMAN)  
1 60493U 24149AB  26068.80227738  .00012094  00000+0  42252-3 0  9994
2 60493  97.3817 150.7693 0002523 238.0469 122.0527 15.29713355 86930
STARLINK-34113          
1 64010U 25101S   26068.17653434  .00017990  00000+0  66188-3 0  9992
2 64010  43.0092   1.1306 0002648 277.4839  82.5712 15.27569228 46970
